NORAD_CAT_ID,OBJECT_NAME,OBJECT_TYPE,EPOCH,MEAN_MOTION,ECCENTRICITY,INCLINATION,RA_OF_ASC_NODE,ARG_OF_PERICENTER,MEAN_ANOMALY,BSTAR,MEAN_MOTION_DOT,MEAN_MOTION_DDOT,TLE_LINE0,TLE_LINE1,TLE_LINE2,SEMIMAJOR_AXIS,PERIOD,APOGEE,PERIGEE,DECAYED
53405.0,STARLINK-4510,PAYLOAD,2023-07-02 18:40:09,15.08842731,9.9e-05,53.216,207.6038,83.6484,276.4621,4.0099e-05,3.51e-06,0.0,0 STARLINK-4510,1 53405U 22097T   23183.77788672  .00000351  00000-0  40099-4 0  9991,2 53405  53.2160 207.6038 0000990  83.6484 276.4621 15.08842731 49946,6917.872,95.437,540.422,539.052,0.0
53405.0,STARLINK-4510,PAYLOAD,2023-07-04 00:52:29,15.08841876,9.62e-05,53.2157,201.9537,88.1233,271.9869,0.00012751,1.742e-05,0.0,0 STARLINK-4510,1 53405U 22097T   23185.03644800  .00001742  00000-0  12751-3 0  9994,2 53405  53.2157 201.9537 0000962  88.1233 271.9869 15.08841876 50130,6917.875,95.437,540.405,539.074,0.0
53405.0,STARLINK-4510,PAYLOAD,2023-07-05 07:04:48,15.08844836,0.0001022,53.216,196.3037,86.6517,273.4592,7.0159e-05,8.29e-06,0.0,0 STARLINK-4510,1 53405U 22097T   23186.29500556  .00000829  00000-0  70159-4 0  9994,2 53405  53.2160 196.3037 0001022  86.6517 273.4592 15.08844836 50322,6917.866,95.437,540.438,539.024,0.0
53405.0,STARLINK-4510,PAYLOAD,2023-07-06 00:34:03,15.08839601,0.0001005,53.216,193.0329,86.2592,273.8515,5.4566e-05,5.81e-06,0.0,0 STARLINK-4510,1 53405U 22097T   23187.02364828  .00000581  00000-0  54566-4 0  9995,2 53405  53.2160 193.0329 0001005  86.2592 273.8515 15.08839601 50435,6917.882,95.438,540.442,539.051,0.0
53405.0,STARLINK-4510,PAYLOAD,2023-07-07 03:35:36,15.08841637,0.0001024,53.2159,187.978,84.3972,275.7137,7.0885e-05,8.41e-06,0.0,0 STARLINK-4510,1 53405U 22097T   23188.14972714  .00000841  00000-0  70885-4 0  9999,2 53405  53.2159 187.9780 0001024  84.3972 275.7137 15.08841637 50600,6917.875,95.437,540.449,539.032,0.0
53405.0,STARLINK-4510,PAYLOAD,2023-07-08 06:37:09,15.08839596,0.0001068,53.216,182.9228,83.8806,276.2308,6.6864e-05,7.76e-06,0.0,0 STARLINK-4510,1 53405U 22097T   23189.27580947  .00000776  00000-0  66864-4 0  9996,2 53405  53.2160 182.9228 0001068  83.8806 276.2308 15.08839596 50777,6917.882,95.438,540.485,539.008,0.0
53405.0,STARLINK-4510,PAYLOAD,2023-07-09 03:17:11,15.08835058,0.0001106,53.2159,179.0571,83.7663,276.3455,9.3057e-06,-1.4e-06,0.0,0 STARLINK-4510,1 53405U 22097T   23190.13693543 -.00000140  00000-0  93057-5 0  9991,2 53405  53.2159 179.0571 0001106  83.7663 276.3455 15.08835058 50904,6917.895,95.438,540.526,538.995,0.0
53405.0,STARLINK-4510,PAYLOAD,2023-07-10 07:54:07,15.08840498,0.0001102,53.216,173.7044,83.5939,276.5179,6.8695e-05,8.06e-06,0.0,0 STARLINK-4510,1 53405U 22097T   23191.32925213  .00000806  00000-0  68695-4 0  9992,2 53405  53.2160 173.7044 0001102  83.5939 276.5179 15.08840498 51081,6917.879,95.438,540.506,538.982,0.0
53405.0,STARLINK-4510,PAYLOAD,2023-07-11 15:41:51,15.08826965,0.0001051,53.2166,167.7576,84.7018,275.4094,-4.5079e-05,-1.005e-05,0.0,0 STARLINK-4510,1 53405U 22097T   23192.65406569 -.00001005  00000-0 -45079-4 0  9992,2 53405  53.2166 167.7576 0001051  84.7018 275.4094 15.08826965 51283,6917.92,95.438,540.512,539.058,0.0
53405.0,STARLINK-4510,PAYLOAD,2023-07-12 15:32:38,15.08832876,0.0001176,53.2173,163.2968,85.5805,274.5322,-7.4991e-06,-4.07e-06,0.0,0 STARLINK-4510,1 53405U 22097T   23193.64766911 -.00000407  00000-0 -74991-5 0  9993,2 53405  53.2173 163.2968 0001176  85.5805 274.5322 15.08832876 51437,6917.902,95.438,540.581,538.954,0.0
53405.0,STARLINK-4510,PAYLOAD,2023-07-13 15:23:24,15.08847479,0.0001145,53.2172,158.8364,86.8684,273.2439,0.00011463,1.537e-05,0.0,0 STARLINK-4510,1 53405U 22097T   23194.64125949  .00001537  00000-0  11463-3 0  9990,2 53405  53.2172 158.8364 0001145  86.8684 273.2439 15.08847479 51587,6917.858,95.437,540.515,538.93,0.0
53405.0,STARLINK-4510,PAYLOAD,2023-07-13 18:34:16,15.08711036,0.0001503,53.2167,158.2418,135.9728,224.1384,0.0023417,0.00037045,0.0,0 STARLINK-4510,1 53405U 22097T   23194.77379646  .00037045  00000-0  23417-2 0  9993,2 53405  53.2167 158.2418 0001503 135.9728 224.1384 15.08711036 51604,6918.275,95.446,541.179,539.1,0.0
53405.0,STARLINK-4510,PAYLOAD,2023-07-14 08:52:38,15.08863913,0.00011,53.2156,155.5655,83.88,276.2317,0.00055006,8.483e-05,0.0,0 STARLINK-4510,1 53405U 22097T   23195.36989568  .00008483  00000-0  55006-3 0  9993,2 53405  53.2156 155.5655 0001100  83.8800 276.2317 15.08863913 51695,6917.807,95.436,540.433,538.911,0.0
53405.0,STARLINK-4510,PAYLOAD,2023-07-15 00:46:30,15.08848789,0.0001123,53.2156,152.5913,85.84,274.2721,0.0001496,2.094e-05,0.0,0 STARLINK-4510,1 53405U 22097T   23196.03229967  .00002094  00000-0  14960-3 0  9994,2 53405  53.2156 152.5913 0001123  85.8400 274.2721 15.08848789 51794,6917.854,95.437,540.495,538.942,0.0
53405.0,STARLINK-4510,PAYLOAD,2023-07-15 03:57:16,15.08859081,0.0001026,53.2154,151.9968,92.4446,267.6663,0.00022646,3.32e-05,0.0,0 STARLINK-4510,1 53405U 22097T   23196.16477294  .00003320  00000-0  22646-3 0  9999,2 53405  53.2154 151.9968 0001026  92.4446 267.6663 15.08859081 51812,6917.822,95.436,540.397,538.977,0.0
53405.0,STARLINK-4510,PAYLOAD,2023-07-16 03:48:03,15.08837467,0.0001092,53.2157,147.5353,87.4652,272.6465,-4.7746e-05,-1.048e-05,0.0,0 STARLINK-4510,1 53405U 22097T   23197.15837803 -.00001048  00000-0 -47746-4 0  9991,2 53405  53.2157 147.5353 0001092  87.4652 272.6465 15.08837467 51966,6917.888,95.438,540.509,538.998,0.0
53405.0,STARLINK-4510,PAYLOAD,2023-07-17 13:11:09,15.08843022,9.96e-05,53.2164,141.2915,85.9133,274.1973,8.0499e-05,9.94e-06,0.0,0 STARLINK-4510,1 53405U 22097T   23198.54941819  .00000994  00000-0  80499-4 0  9997,2 53405  53.2164 141.2915 0000996  85.9133 274.1973 15.08843022 52177,6917.871,95.437,540.425,539.047,0.0
53405.0,STARLINK-4510,PAYLOAD,2023-07-19 01:45:02,15.08841537,0.0001249,53.2168,134.4528,81.8699,278.2435,4.5256e-05,4.32e-06,0.0,0 STARLINK-4510,1 53405U 22097T   23200.07294099  .00000432  00000-0  45256-4 0  9999,2 53405  53.2168 134.4528 0001249  81.8699 278.2435 15.08841537 52402,6917.876,95.437,540.605,538.877,0.0
53405.0,STARLINK-4510,PAYLOAD,2023-07-20 04:46:36,15.08833819,0.0001398,53.2184,129.3951,97.8532,262.2619,-4.1582e-05,-9.5e-06,0.0,0 STARLINK-4510,1 53405U 22097T   23201.19903034 -.00000950  00000-0 -41582-4 0  9994,2 53405  53.2184 129.3951 0001398  97.8532 262.2619 15.08833819 52570,6917.899,95.438,540.731,538.797,0.0
53405.0,STARLINK-4510,PAYLOAD,2023-07-21 04:37:23,15.08842493,0.0001291,53.2171,124.9354,111.8054,248.3076,0.00035694,5.398e-05,0.0,0 STARLINK-4510,1 53405U 22097T   23202.19262779  .00005398  00000-0  35694-3 0  9994,2 53405  53.2171 124.9354 0001291 111.8054 248.3076 15.08842493 52729,6917.873,95.437,540.631,538.845,0.0
53405.0,STARLINK-4510,PAYLOAD,2023-07-24 02:34:21,15.08833421,0.0001143,53.2165,111.8528,97.2361,262.8761,-9.419e-05,-1.786e-05,0.0,0 STARLINK-4510,1 53405U 22097T   23205.10719213 -.00001786  00000-0 -94190-4 0  9994,2 53405  53.2165 111.8528 0001143  97.2361 262.8761 15.08833421 53650,6917.9,95.438,540.556,538.975,0.0
53405.0,STARLINK-4510,PAYLOAD,2023-07-25 04:00:30,15.08850387,0.000114,53.2182,107.0928,143.8553,216.2516,1.8181e-05,2e-08,0.0,0 STARLINK-4510,1 53405U 22097T   23206.16702285  .00000002  00000-0  18181-4 0  9996,2 53405  53.2182 107.0928 0001140 143.8553 216.2516 15.08850387 53817,6917.849,95.437,540.502,538.925,0.0
53405.0,STARLINK-4510,PAYLOAD,2023-07-26 02:15:55,15.08838776,0.0001816,53.2176,102.9311,83.1126,277.0072,3.63e-05,2.9e-06,0.0,0 STARLINK-4510,1 53405U 22097T   23207.09439420  .00000290  00000-0  36300-4 0  9999,2 53405  53.2176 102.9311 0001816  83.1126 277.0072 15.08838776 53957,6917.884,95.438,541.005,538.493,0.0
53405.0,STARLINK-4510,PAYLOAD,2023-07-27 10:03:38,15.08831148,0.0001789,53.2166,96.9833,85.9756,274.1441,-3.048e-05,-7.73e-06,0.0,0 STARLINK-4510,1 53405U 22097T   23208.41919540 -.00000773  00000-0 -30480-4 0  9993,2 53405  53.2166  96.9833 0001789  85.9756 274.1441 15.08831148 53667,6917.907,95.438,541.01,538.535,0.0
53405.0,STARLINK-4510,PAYLOAD,2023-07-27 16:25:11,15.08831611,0.0001814,53.2153,95.7969,76.7344,283.385,-1.2407e-06,-3.08e-06,0.0,0 STARLINK-4510,1 53405U 22097T   23208.68415709 -.00000308  00000-0 -12407-5 0  9994,2 53405  53.2153  95.7969 0001814  76.7344 283.3850 15.08831611 54190,6917.906,95.438,541.026,538.516,0.0
53405.0,STARLINK-4510,PAYLOAD,2023-07-28 01:57:30,15.08831498,0.0001211,53.2171,94.0106,91.7141,268.399,-4.6383e-05,-1.026e-05,0.0,0 STARLINK-4510,1 53405U 22097T   23209.08160420 -.00001026  00000-0 -46383-4 0  9993,2 53405  53.2171  94.0106 0001211  91.7141 268.3990 15.08831498 54256,6917.906,95.438,540.609,538.934,0.0
53405.0,STARLINK-4510,PAYLOAD,2023-07-28 16:15:58,15.08844732,0.0001284,53.2164,91.335,92.3572,267.7567,2.6982e-05,1.42e-06,0.0,0 STARLINK-4510,1 53405U 22097T   23209.67775465  .00000142  00000-0  26982-4 0  9998,2 53405  53.2164  91.3350 0001284  92.3572 267.7567 15.08844732 53857,6917.866,95.437,540.619,538.843,0.0
53405.0,STARLINK-4510,PAYLOAD,2023-07-29 01:48:15,15.08859325,0.0001142,53.217,89.5505,91.4315,268.6808,7.9488e-05,9.78e-06,0.0,0 STARLINK-4510,1 53405U 22097T   23210.07518363  .00000978  00000-0  79488-4 0  9992,2 53405  53.2170  89.5505 0001142  91.4315 268.6808 15.08859325 53912,6917.821,95.436,540.476,538.896,0.0
53405.0,STARLINK-4510,PAYLOAD,2023-07-29 19:17:31,15.08841711,0.0001164,53.2167,86.2795,77.4131,282.6991,0.00029693,4.441e-05,0.0,0 STARLINK-4510,1 53405U 22097T   23210.80383715  .00004441  00000-0  29693-3 0  9995,2 53405  53.2167  86.2795 0001164  77.4131 282.6991 15.08841711 54029,6917.875,95.437,540.545,538.935,0.0
53405.0,STARLINK-4510,PAYLOAD,2023-07-30 01:39:03,15.08853468,0.0001207,53.2166,85.0904,83.8671,276.2459,0.00033265,5.012e-05,0.0,0 STARLINK-4510,1 53405U 22097T   23211.06879201  .00005012  00000-0  33265-3 0  9999,2 53405  53.2166  85.0904 0001207  83.8671 276.2459 15.08853468 54069,6917.839,95.437,540.539,538.869,0.0
